OBJECT_NAME,OBJECT_ID,EPOCH,MEAN_MOTION,ECCENTRICITY,INCLINATION,RA_OF_ASC_NODE,ARG_OF_PERICENTER,MEAN_ANOMALY,EPHEMERIS_TYPE,CLASSIFICATION_TYPE,NORAD_CAT_ID,ELEMENT_SET_NO,REV_AT_EPOCH,BSTAR,MEAN_MOTION_DOT,MEAN_MOTION_DDOT
STARLINK-1666,2020-062AJ,2026-07-02T00:00:02.000160,15.90799488,.00043028,53.0305,127.0042,90.7931,121.7899,0,U,46357,999,602,.72615221E-3,.228829E-2,.30380455E-4
STARLINK-1707,2020-062AL,2026-07-01T21:46:26.711904,16.06315207,.00045965,53.0110,61.9856,229.3718,130.6914,0,U,46359,999,32378,.10339809E-2,.787314E-2,.32946147E-3
STARLINK-1724,2020-062BC,2026-07-01T23:04:44.494176,15.75113796,.00028378,53.0207,86.4119,40.5342,319.5887,0,U,46375,999,32345,.86050523E-3,.13266E-2,0
STARLINK-1770,2020-062BL,2026-07-01T22:44:23.923104,15.82473192,.00030221,53.0363,108.5995,37.8267,322.2967,0,U,46383,999,32314,.67772551E-3,.145863E-2,0
STARLINK-1771,2020-062BM,2026-07-01T22:51:14.628096,15.64524480,.00044102,53.0357,152.8938,72.0840,288.0654,0,U,46384,999,32252,.52180764E-3,.5102E-3,0
STARLINK-1663,2020-070D,2026-07-01T12:35:58.015392,16.37539101,.000927,53.0163,282.6120,310.8021,49.2219,0,U,46535,999,31809,.66074E-3,.6895339E-1,.12377E-4
STARLINK-1672,2020-070F,2026-06-30T01:39:18.322848,15.70363121,.00021563,53.0437,312.5422,0.6382,359.4637,0,U,46537,999,31756,.82669529E-3,.103626E-2,0
STARLINK-1678,2020-070G,2026-07-01T22:08:21.148800,16.01969804,.00114224,53.0257,260.4712,340.3976,19.6613,0,U,46538,999,31844,.99048608E-3,.584274E-2,.1665765E-3
STARLINK-1664,2020-070X,2026-07-01T18:27:57.037824,15.53471906,.00027237,53.0436,308.7463,277.2386,82.8314,0,U,46553,999,31776,.11624568E-2,.75286E-3,0
STARLINK-1676,2020-070AA,2026-07-02T00:00:02.000160,15.79046779,.00022418,53.0351,305.2863,20.2981,15.4632,0,U,46556,999,598,.49599153E-3,.90348E-3,0
STARLINK-1679,2020-070AB,2026-07-02T00:00:02.000160,15.97074519,.00105082,53.0355,276.8613,346.4859,31.7807,0,U,46557,999,596,.96098411E-3,.427633E-2,.8628618E-4
STARLINK-1714,2020-070AG,2026-07-02T00:00:02.000160,15.77736962,.00020335,53.0358,275.9942,328.9247,76.0687,0,U,46562,999,578,.33420243E-3,.56934E-3,0
STARLINK-1730,2020-070AH,2026-07-01T17:08:03.086304,15.66133632,.00057481,53.0250,291.3216,338.2554,21.8215,0,U,46563,999,31800,.7993234E-3,.84044E-3,0
STARLINK-1735,2020-070AK,2026-07-01T16:44:50.730432,16.08297600,.0011837,53.0260,269.1429,345.6361,14.4333,0,U,46565,999,31830,.92125491E-3,.80201E-2,.3546747E-3
STARLINK-1741,2020-070AM,2026-07-01T16:15:18.957600,16.20840920,.00121209,53.0221,265.9204,337.7695,22.2816,0,U,46567,999,31835,.10204701E-2,.2197586E-1,.11862081E-4
STARLINK-1531,2020-070AS,2026-07-01T18:49:32.077920,16.11069481,.00154285,53.0383,287.7976,321.3319,38.6610,0,U,46572,999,31805,.10628549E-2,.1112246E-1,.77783917E-3
STARLINK-1728,2020-070BC,2026-07-02T00:00:02.000160,15.82190423,.00071337,53.0320,283.5150,345.8623,177.6713,0,U,46582,999,594,.5582608E-3,.118222E-2,0
STARLINK-1718,2020-073E,2026-07-02T00:00:02.000160,15.81849131,.00048506,53.0397,24.6780,268.4726,76.2737,0,U,46674,999,595,.60298906E-3,.125722E-2,0
STARLINK-1781,2020-073R,2026-07-02T00:00:02.000160,15.78474203,.00007542,53.0403,40.7264,340.9407,358.0866,0,U,46685,999,595,.83849135E-3,.150334E-2,0
STARLINK-1784,2020-073T,2026-07-01T16:56:31.234848,16.01807934,.0011578,53.0317,337.6403,304.9518,55.0424,0,U,46687,999,31588,.96283257E-3,.562669E-2,.1542529E-3
STARLINK-1788,2020-073V,2026-07-02T00:00:02.000160,15.98131345,.00065884,53.0268,7.9383,279.2120,335.2084,0,U,46689,999,576,.10698546E-2,.503463E-2,.11836114E-3
STARLINK-1797,2020-073AE,2026-06-30T13:33:41.273856,15.72389074,.00032681,53.0387,15.8738,121.7070,238.4266,0,U,46698,999,31525,.69981061E-3,.95382E-3,0
STARLINK-1802,2020-073AJ,2026-07-01T08:01:05.677536,15.40420708,.00029547,53.1561,45.3958,99.3759,260.7580,0,U,46702,999,31493,.18963164E-2,.78286E-3,0
STARLINK-1805,2020-073AM,2026-07-01T21:19:45.063264,15.77065503,.00009855,53.0420,44.6231,235.2802,124.8125,0,U,46705,999,31496,.81001361E-3,.136094E-2,0
STARLINK-1807,2020-073AN,2026-07-01T22:57:16.205184,15.32800712,.000359,53.0565,57.8759,115.5675,244.5697,0,U,46706,999,31479,.13389951E-2,.42895E-3,0
STARLINK-1810,2020-073AR,2026-07-01T20:59:10.226688,15.67541400,.00039771,53.0400,38.0420,135.4228,224.7107,0,U,46709,999,31505,.81895993E-3,.91231E-3,0
STARLINK-1817,2020-073AX,2026-07-02T00:00:02.000160,15.99882551,.00103633,53.0374,7.4907,283.2954,325.5862,0,U,46715,999,596,.90213751E-3,.470404E-2,.10651315E-3
STARLINK-1821,2020-073BA,2026-07-01T21:33:42.304320,15.54675119,.00033026,53.0411,41.8195,192.7451,167.3476,0,U,46718,999,31501,.74486741E-3,.50082E-3,0
STARLINK-1826,2020-073BF,2026-07-02T00:00:02.000160,15.88148021,.00073282,53.0391,333.3063,271.5224,169.6044,0,U,46723,999,597,.82876708E-3,.237697E-2,0
