[{"name":"STARLINK-1666","l1":"1 46357U 20062AJ  26183.00002315  .00228829  30380-4  72615-3 0  9999","l2":"2 46357  53.0305 127.0042 0004302  90.7931 121.7899 15.90799488  6022","cat":"starlink"},{"name":"STARLINK-1707","l1":"1 46359U 20062AL  26182.90725361  .00787314  32946-3  10340-2 0  9996","l2":"2 46359  53.0110  61.9856 0004596 229.3718 130.6914 16.06315207323788","cat":"starlink"},{"name":"STARLINK-1724","l1":"1 46375U 20062BC  26182.96162609  .00132660  00000+0  86051-3 0  9993","l2":"2 46375  53.0207  86.4119 0002837  40.5342 319.5887 15.75113796323454","cat":"starlink"},{"name":"STARLINK-1770","l1":"1 46383U 20062BL  26182.94749911  .00145863  00000+0  67773-3 0  9996","l2":"2 46383  53.0363 108.5995 0003022  37.8267 322.2967 15.82473192323149","cat":"starlink"},{"name":"STARLINK-1771","l1":"1 46384U 20062BM  26182.95225264  .00051020  00000+0  52181-3 0  9996","l2":"2 46384  53.0357 152.8938 0004410  72.0840 288.0654 15.64524480322522","cat":"starlink"},{"name":"STARLINK-1663","l1":"1 46535U 20070D   26182.52497703  .06895339  12377-4  66074-3 0  9991","l2":"2 46535  53.0163 282.6120 0009270 310.8021  49.2219 16.37539101318091","cat":"starlink"},{"name":"STARLINK-1672","l1":"1 46537U 20070F   26181.06896207  .00103626  00000+0  82670-3 0  9993","l2":"2 46537  53.0437 312.5422 0002156   0.6382 359.4637 15.70363121317569","cat":"starlink"},{"name":"STARLINK-1678","l1":"1 46538U 20070G   26182.92246700  .00584274  16658-3  99049-3 0  9997","l2":"2 46538  53.0257 260.4712 0011422 340.3976  19.6613 16.01969804318444","cat":"starlink"},{"name":"STARLINK-1664","l1":"1 46553U 20070X   26182.76941016  .00075286  00000+0  11625-2 0  9999","l2":"2 46553  53.0436 308.7463 0002723 277.2386  82.8314 15.53471906317767","cat":"starlink"},{"name":"STARLINK-1676","l1":"1 46556U 20070AA  26183.00002315  .00090348  00000+0  49599-3 0  9998","l2":"2 46556  53.0351 305.2863 0002241  20.2981  15.4632 15.79046779  5981","cat":"starlink"},{"name":"STARLINK-1679","l1":"1 46557U 20070AB  26183.00002315  .00427633  86286-4  96098-3 0  9991","l2":"2 46557  53.0355 276.8613 0010508 346.4859  31.7807 15.97074519  5960","cat":"starlink"},{"name":"STARLINK-1714","l1":"1 46562U 20070AG  26183.00002315  .00056934  00000+0  33420-3 0  9994","l2":"2 46562  53.0358 275.9942 0002033 328.9247  76.0687 15.77736962  5787","cat":"starlink"},{"name":"STARLINK-1730","l1":"1 46563U 20070AH  26182.71392461  .00084044  00000+0  79932-3 0  9997","l2":"2 46563  53.0250 291.3216 0005748 338.2554  21.8215 15.66133632318006","cat":"starlink"},{"name":"STARLINK-1735","l1":"1 46565U 20070AK  26182.69780938  .00802010  35467-3  92125-3 0  9995","l2":"2 46565  53.0260 269.1429 0011837 345.6361  14.4333 16.08297600318307","cat":"starlink"},{"name":"STARLINK-1741","l1":"1 46567U 20070AM  26182.67730275  .02197586  11862-4  10205-2 0  9993","l2":"2 46567  53.0221 265.9204 0012120 337.7695  22.2816 16.20840920318350","cat":"starlink"},{"name":"STARLINK-1531","l1":"1 46572U 20070AS  26182.78439905  .01112246  77784-3  10629-2 0  9990","l2":"2 46572  53.0383 287.7976 0015428 321.3319  38.6610 16.11069481318054","cat":"starlink"},{"name":"STARLINK-1728","l1":"1 46582U 20070BC  26183.00002315  .00118222  00000+0  55826-3 0  9999","l2":"2 46582  53.0320 283.5150 0007133 345.8623 177.6713 15.82190423  5944","cat":"starlink"},{"name":"STARLINK-1718","l1":"1 46674U 20073E   26183.00002315  .00125722  00000+0  60299-3 0  9997","l2":"2 46674  53.0397  24.6780 0004850 268.4726  76.2737 15.81849131  5957","cat":"starlink"},{"name":"STARLINK-1781","l1":"1 46685U 20073R   26183.00002315  .00150334  00000+0  83849-3 0  9992","l2":"2 46685  53.0403  40.7264 0000754 340.9407 358.0866 15.78474203  5958","cat":"starlink"},{"name":"STARLINK-1784","l1":"1 46687U 20073T   26182.70591707  .00562669  15425-3  96283-3 0  9993","l2":"2 46687  53.0317 337.6403 0011578 304.9518  55.0424 16.01807934315884","cat":"starlink"},{"name":"STARLINK-1788","l1":"1 46689U 20073V   26183.00002315  .00503463  11836-3  10699-2 0  9996","l2":"2 46689  53.0268   7.9383 0006588 279.2120 335.2084 15.98131345  5762","cat":"starlink"},{"name":"STARLINK-1797","l1":"1 46698U 20073AE  26181.56506104  .00095382  00000+0  69981-3 0  9992","l2":"2 46698  53.0387  15.8738 0003268 121.7070 238.4266 15.72389074315253","cat":"starlink"},{"name":"STARLINK-1802","l1":"1 46702U 20073AJ  26182.33409349  .00078286  00000+0  18963-2 0  9994","l2":"2 46702  53.1561  45.3958 0002954  99.3759 260.7580 15.40420708314937","cat":"starlink"},{"name":"STARLINK-1805","l1":"1 46705U 20073AM  26182.88871601  .00136094  00000+0  81001-3 0  9997","l2":"2 46705  53.0420  44.6231 0000985 235.2802 124.8125 15.77065503314967","cat":"starlink"},{"name":"STARLINK-1807","l1":"1 46706U 20073AN  26182.95643756  .00042895  00000+0  13390-2 0  9994","l2":"2 46706  53.0565  57.8759 0003590 115.5675 244.5697 15.32800712314797","cat":"starlink"},{"name":"STARLINK-1810","l1":"1 46709U 20073AR  26182.87442392  .00091231  00000+0  81896-3 0  9996","l2":"2 46709  53.0400  38.0420 0003977 135.4228 224.7107 15.67541400315058","cat":"starlink"},{"name":"STARLINK-1817","l1":"1 46715U 20073AX  26183.00002315  .00470404  10651-3  90214-3 0  9990","l2":"2 46715  53.0374   7.4907 0010363 283.2954 325.5862 15.99882551  5964","cat":"starlink"},{"name":"STARLINK-1821","l1":"1 46718U 20073BA  26182.89840630  .00050082  00000+0  74487-3 0  9992","l2":"2 46718  53.0411  41.8195 0003302 192.7451 167.3476 15.54675119315015","cat":"starlink"},{"name":"STARLINK-1826","l1":"1 46723U 20073BF  26183.00002315  .00237697  00000+0  82877-3 0  9993","l2":"2 46723  53.0391 333.3063 0007328 271.5224 169.6044 15.88148021  5978","cat":"starlink"}]